XIAOXIANG-2             
1 43155U 18008A   21108.59084137  .00001673  00000-0  10004-3 0  9999
2 43155  97.4072 175.3481 0017559 169.9733 324.2304 15.12290437179024
ZHOU ENLAI              
1 43156U 18008B   21108.57689185  .00001432  00000-0  87163-4 0  9996
2 43156  97.4121 175.1697 0014710 168.3080 331.0322 15.11884324178962
QUANTUTONG 1            
1 43158U 18008D   21108.41616035  .00000899  00000-0  56937-4 0  9996
2 43158  97.4052 173.6720 0013455 168.2238 252.5805 15.11329390178876
S-NET D                 
1 43186U 18014G   21108.33408746  .00000180  00000-0  20663-4 0  9993
2 43186  97.6803  16.9915 0009722 285.6577  74.3572 14.97016853175306
S-NET B                 
1 43187U 18014H   21108.46766746  .00000246  00000-0  26349-4 0  9995
2 43187  97.6799  17.0913 0009714 285.0633  74.9514 14.97016815175321
S-NET A                 
1 43188U 18014J   21108.53451109  .00000238  00000-0  25682-4 0  9998
2 43188  97.6803  17.1991 0009717 284.8973  75.1173 14.97015582175337
S-NET C                 
1 43189U 18014K   21108.53499278  .00000261  00000-0  27646-4 0  9996
2 43189  97.6799  17.1507 0009712 284.7254  75.2892 14.97015603173882
FENGMANIU-1 (FMN-1)     
1 43192U 18015A   21108.60898324  .00004509  00000-0  16923-3 0  9998
2 43192  97.4787 243.7313 0016166  93.6865 321.9638 15.27616369178456
SHAONIAN XING           
1 43199U 18015H   21108.61628652  .00003242  00000-0  12384-3 0  9991
2 43199  97.4578 241.1129 0017372 102.0001 321.5879 15.27223102178514
LUOJIA-1 01             
1 43485U 18048B   21108.50581173  .00000201  00000-0  35972-4 0  9990
2 43485  97.9622 190.9937 0012553 126.1089 234.1282 14.76823863155148
RADSAT-G                
1 43553U 98067PB  21094.62928569  .03890718  12239-4  60024-3 0  9995
2 43553  51.6239 227.0840 0009894 313.2518  46.7680 16.33102743156209
SURFSAT                 
1 43614U 18070B   21108.44676088  .00006160  00000-0  14660-3 0  9992
2 43614  93.0253 281.0343 0012230 229.3759 130.6434 15.41570473145422
CP7 (DAVE)              
1 43615U 18070C   21108.45320274  .00006012  00000-0  14437-3 0  9995
2 43615  93.0256 281.0004 0012421 229.5209 130.4965 15.41301727145414
ELFIN-B                 
1 43616U 18070D   21108.45314150  .00009604  00000-0  21141-3 0  9992
2 43616  93.0216 281.1232 0012477 227.8027 132.2172 15.43877100145511
ELFIN-A                 
1 43617U 18070E   21108.49480218  .00012725  00000-0  27617-3 0  9998
2 43617  93.0264 281.9305 0011971 223.6582 136.3729 15.44286866145531
STARS-ME                
1 43640U 98067PQ  21108.52750406  .00130855  00000-0  47329-3 0  9998
2 43640  51.6268 184.1320 0004383  21.0154 339.1030 15.87690830144743
CZ-4B R/B               
1 43656U 18081B   21108.53214422  .00000024  00000-0  25495-4 0  9992
2 43656  99.3605 204.1671 0207623 285.3644  72.4681 14.30461780129601
CUBEBEL-1 (BSUSAT-1)    
1 43666U 18083E   21108.38382139  .00001709  00000-0  84385-4 0  9993
2 43666  97.4612 137.4971 0015312  25.3418 104.7262 15.19143844136892
CHANGSHAGAOXIN (TY 4-01)
1 43669U 18083H   21108.52657663  .00001489  00000-0  76535-4 0  9992
2 43669  97.4517 134.8966 0011453  22.0796 124.0553 15.17965653136794
TEN-KOH                 
1 43677U 18084G   21108.57107766  .00000277  00000-0  34274-4 0  9999
2 43677  97.9106 231.4879 0014952 228.7172 131.2758 14.90437653134383
DIWATA-2B               
1 43678U 18084H   21108.48681336 -.00000263  00000-0 -20355-4 0  9992
2 43678  97.9137 233.4898 0008474 247.6252 112.4074 14.91728051134492
STARS-AO                
1 43679U 18084J   21108.62782448  .00000742  00000-0  77996-4 0  9998
2 43679  97.9182 234.7519 0007788 252.3875 107.6493 14.92464584134566
AUTCUBE 2               
1 43681U 18084K   21108.30539629  .00000415  00000-0  46585-4 0  9994
2 43681  97.9146 233.6022 0008184 246.4490 113.5869 14.92047339134449
IRVINE01                
1 43693U 18088D   21108.59387509  .00007240  00000-0  28722-3 0  9995
2 43693  85.0353 234.7130 0014983 241.6013 118.3720 15.25074247135315
ES'HAIL 2               
1 43700U 18090A   21108.55830031  .00000147  00000-0  00000-0 0  9991
2 43700   0.0292 106.2360 0002453 312.7673  14.6579  1.00273374  8760
FACSAT-1                
1 43721U 18096C   21108.51052740  .00002713  00000-0  99907-4 0  9998
2 43721  97.3876 186.1122 0018342 121.0622   3.7139 15.28555916132963
CENTAURI-2              
1 43722U 18096D   21108.43528911  .00005136  00000-0  18097-3 0  9990
2 43722  97.3889 186.7160 0018230 120.9910 239.3124 15.29583023132984
3CAT-1                  
1 43728U 18096K   21108.53086876  .00004133  00000-0  14486-3 0  9990
2 43728  97.3900 187.3452 0017989 123.9078   3.2168 15.29876732133027
INNOSAT-2               
1 43738U 18096V   21108.56279285  .00006334  00000-0  20022-3 0  9990
2 43738  97.3935 190.2685 0023351 123.0209 349.2944 15.32891017133228
REAKTOR HELLO WORLD     
1 43743U 18096AA  21108.49020457  .00003285  00000-0  12044-3 0  9990
2 43743  97.3877 186.4624 0018753 126.2770 234.0205 15.28544088132977
ELYSIUM STAR 2 & LFF    
1 43760U 18099C   21108.54068421  .00001593  00000-0  14621-3 0  9994
2 43760  97.6734 181.0172 0012373 243.6891 116.3060 14.96197474129558
2018-099D               
1 43761U 18099D   21108.38883435 -.00000230  00000-0 -15666-4 0  9997
2 43761  97.6692 180.3225 0013029 249.8746 110.1088 14.95267527129490
AISTECHSAT 2            
1 43768U 18099L   21108.46305820  .00000533  00000-0  54059-4 0  9993
2 43768  97.6660 179.3617 0010080 246.1672 113.8493 14.94863393129185
FOX-1CLIFF (AO-95)      
1 43770U 18099N   21108.42461002  .00000539  00000-0  54071-4 0  9997
2 43770  97.6689 179.9274 0012938 256.7635 103.2143 14.95265172129484
RANGE-A                 
1 43772U 18099Q   21108.46477467  .00000785  00000-0  75907-4 0  9999
2 43772  97.6767 180.8706 0012872 241.7312 118.2610 14.95545640129494
RANGE-B                 
1 43773U 18099R   21108.42599628  .00000252  00000-0  28094-4 0  9994
2 43773  97.6625 179.3110 0012095 242.3841 117.6153 14.95173039129473
2018-099T               
1 43775U 18099T   21108.43007238  .00000136  00000-0  17569-4 0  9994
2 43775  97.6692 180.1425 0013130 247.1724 112.8111 14.95248914129489
MOVE-II                 
1 43780U 18099Y   21108.47661685  .00001378  00000-0  12836-3 0  9996
2 43780  97.6703 180.4454 0011898 251.8772 108.1154 14.95832198129508
SNUSAT-2                
1 43782U 18099AA  21108.46710773  .00000724  00000-0  70483-4 0  9997
2 43782  97.6683 180.2892 0011458 240.2508 119.7573 14.95508130129501
SNUGLITE                
1 43784U 18099AC  21108.48041701  .00001019  00000-0  96768-4 0  9991
2 43784  97.6652 180.0446 0013513 249.3634 110.6138 14.95630812129528
ITASAT 1                
1 43786U 18099AE  21108.42266274  .00000645  00000-0  63186-4 0  9993
2 43786  97.6708 180.5617 0013603 249.2113 110.7651 14.95567474129511
KAZSCISAT-1             
1 43787U 18099AF  21108.43086366  .00000491  00000-0  48788-4 0  9997
2 43787  97.6621 179.7794 0012634 245.8833 114.1067 14.96015867129532
EAGLET-I                
1 43790U 18099AJ  21108.47140185  .00000660  00000-0  63994-4 0  9999
2 43790  97.6693 180.9972 0011992 252.8745 107.1163 14.95929342129241
ESEO                    
1 43792U 18099AL  21108.51430428 -.00000200  00000-0 -12831-4 0  9994
2 43792  97.6661 180.6775 0011945 250.2852 109.7081 14.95715576129301
CSIM-FD                 
1 43793U 18099AM  21108.43820105  .00000375  00000-0  38056-4 0  9999
2 43793  97.6690 180.8940 0011547 245.2233 114.7787 14.96489858129294
ASTROCAST 0.1           
1 43798U 18099AS  21108.16185272  .00000674  00000-0  64990-4 0  9991
2 43798  97.6704 180.8674 0011099 230.8625 129.1611 14.96105997129505
JY1SAT (JO-97)          
1 43803U 18099AX  21108.46308332  .00000644  00000-0  62764-4 0  9999
2 43803  97.6663 180.3605 0013748 248.6648 111.3106 14.95796776129524
SUOMI-100               
1 43804U 18099AY  21108.46746979  .00000767  00000-0  73849-4 0  9995
2 43804  97.6663 180.3363 0013777 248.7048 111.2702 14.95771450129537
AL-FARABI 2             
1 43805U 18099AZ  21108.34325510  .00001073  00000-0  10067-3 0  9990
2 43805  97.6664 180.4061 0013721 247.7784 112.1984 14.95973531129525
CENTAURI-1              
1 43809U 18099BD  21108.14494875  .00000862  00000-0  82257-4 0  9999
2 43809  97.6679 180.3136 0013659 251.1263 108.8477 14.95788059129188
CHOMPTT                 
1 43855U 18104G   21108.56707049  .00001763  00000-0  71243-4 0  9997
2 43855  85.0366 333.2101 0017714  15.1352 345.0417 15.23804075129972
DAVINCI                 
1 43857U 18104J   21108.61619174  .00006230  00000-0  24755-3 0  9995
2 43857  85.0318 333.0805 0016362  39.6578 320.5858 15.24966877129965
UWE-4                   
1 43880U 18111E   21108.48698754  .00001115  00000-0  10236-3 0  9991
2 43880  97.6901  17.2339 0010856 310.1733  49.8538 14.96803296126116
ZACUBE-2                
1 43907U 18111AH  21108.61795728  .00001005  00000-0  42693-4 0  9996
2 43907  97.2390   4.7569 0021978 140.6338 282.7511 15.25088012128513
MICRODRAGON             
1 43935U 19003D   21108.54477177  .00001283  00000-0  56983-4 0  9990
2 43935  97.1882 152.5399 0016417 234.5893 125.3811 15.23156126124985
AOBA VELOX-IV           
1 43940U 19003J   21108.41318974  .00006243  00000-0  23828-3 0  9993
2 43940  97.1847 154.7570 0021680 218.6407 141.3282 15.26781827125143
M6P                     
1 44109U 19018AF  21108.49120649  .00004616  00000-0  14233-3 0  9997
2 44109  97.4282 185.3960 0055634 205.0990 154.7547 15.32584023114273
SPOOQY-1                
1 44332U 98067QH  21108.61639944  .00056784  00000-0  44247-3 0  9994
2 44332  51.6334 233.1746 0003159  40.0154 320.1076 15.71137000104670
FORMOSAT 7-4            
1 44350U 19036M   21108.23954900  .00001126  00000-0  50220-4 0  9992
2 44350  24.0000  63.1295 0006231  55.8653 304.2441 15.07718088 99230
